start=new Date('2022-06-17T00:00:00.000Z').valueOf();
sats=[{"ECCENTRICITY":"0.00022720","MEAN_MOTION_DDOT":"0.0000000000000","TLE_LINE2":"2 47890  53.0531 223.7122 0002272  26.4579 333.6541 15.42147306 70928","MEAN_ANOMALY":"333.6541","ARG_OF_PERICENTER":"26.4579","MEAN_ELEMENT_THEORY":"SGP4","NORAD_CAT_ID":"47890","EPHEMERIS_TYPE":"0","OBJECT_TYPE":"PAYLOAD","REF_FRAME":"TEME","GP_ID":"206212143","OBJECT_ID":"2021-021AG","PERIAPSIS":"438.226","BSTAR":"-0.00009099200000","PERIOD":"93.376","EPOCH":"2022-06-15T11:30:42.703488","FILE":"3496852","APOAPSIS":"441.324","COUNTRY_CODE":"US","MEAN_MOTION":"15.42147306","TLE_LINE1":"1 47890U 21021AG  22166.47966092 -.00004369  00000-0 -90992-4 0  9991","LAUNCH_DATE":"2021-03-14","TIME_SYSTEM":"UTC","ELEMENT_SET_NO":"999","DECAY_DATE":null,"CENTER_NAME":"EARTH","SEMIMAJOR_AXIS":"6817.910","CLASSIFICATION_TYPE":"U","OBJECT_NAME":"STARLINK-2350","MEAN_MOTION_DOT":"-0.00004369","REV_AT_EPOCH":"7092","RA_OF_ASC_NODE":"223.7122","INCLINATION":"53.0531","SITE":"AFETR","RCS_SIZE":"LARGE"},{"OBJECT_TYPE":"PAYLOAD","REF_FRAME":"TEME","GP_ID":"206213905","OBJECT_ID":"2021-021AH","PERIAPSIS":"546.129","MEAN_ANOMALY":"293.3561","ARG_OF_PERICENTER":"66.7596","MEAN_ELEMENT_THEORY":"SGP4","NORAD_CAT_ID":"47891","EPHEMERIS_TYPE":"0","TLE_LINE2":"2 47891  53.0551 279.9748 0001601  66.7596 293.3561 15.06391988 70155","ECCENTRICITY":"0.00016010","MEAN_MOTION_DDOT":"0.0000000000000","MEAN_MOTION":"15.06391988","APOAPSIS":"548.347","FILE":"3496931","COUNTRY_CODE":"US","BSTAR":"-0.00007362300000","PERIOD":"95.593","EPOCH":"2022-06-15T18:39:57.886848","CLASSIFICATION_TYPE":"U","OBJECT_NAME":"STARLINK-2351","CENTER_NAME":"EARTH","SEMIMAJOR_AXIS":"6925.373","ELEMENT_SET_NO":"999","DECAY_DATE":null,"TLE_LINE1":"1 47891U 21021AH  22166.77775332 -.00001378  00000-0 -73623-4 0  9999","TIME_SYSTEM":"UTC","LAUNCH_DATE":"2021-03-14","RCS_SIZE":"LARGE","SITE":"AFETR","RA_OF_ASC_NODE":"279.9748","INCLINATION":"53.0551","REV_AT_EPOCH":"7015","MEAN_MOTION_DOT":"-0.00001378"},{"REV_AT_EPOCH":"7078","MEAN_MOTION_DOT":"-0.00001077","INCLINATION":"53.0561","RA_OF_ASC_NODE":"270.5905","SITE":"AFETR","RCS_SIZE":"LARGE","TIME_SYSTEM":"UTC","LAUNCH_DATE":"2021-03-14","TLE_LINE1":"1 47892U 21021AJ  22166.98854640 -.00001077  00000-0 -38311-4 0  9994","ELEMENT_SET_NO":"999","DECAY_DATE":null,"SEMIMAJOR_AXIS":"6893.323","CENTER_NAME":"EARTH","OBJECT_NAME":"STARLINK-2352","CLASSIFICATION_TYPE":"U","PERIOD":"94.930","EPOCH":"2022-06-15T23:43:30.408960","BSTAR":"-0.00003831100000","FILE":"3497002","APOAPSIS":"516.501","COUNTRY_CODE":"US","MEAN_MOTION":"15.16909977","MEAN_MOTION_DDOT":"0.0000000000000","ECCENTRICITY":"0.00019050","TLE_LINE2":"2 47892  53.0561 270.5905 0001905  51.3492 308.7672 15.16909977 70788","NORAD_CAT_ID":"47892","EPHEMERIS_TYPE":"0","MEAN_ANOMALY":"308.7672","ARG_OF_PERICENTER":"51.3492","MEAN_ELEMENT_THEORY":"SGP4","GP_ID":"206287934","OBJECT_ID":"2021-021AJ","PERIAPSIS":"513.875","OBJECT_TYPE":"PAYLOAD","REF_FRAME":"TEME"},{"SEMIMAJOR_AXIS":"6925.323","CENTER_NAME":"EARTH","OBJECT_NAME":"STARLINK-2354","CLASSIFICATION_TYPE":"U","LAUNCH_DATE":"2021-03-14","TIME_SYSTEM":"UTC","TLE_LINE1":"1 47894U 21021AL  22166.99981332  .00001399  00000-0  11278-3 0  9993","ELEMENT_SET_NO":"999","DECAY_DATE":null,"SITE":"AFETR","RCS_SIZE":"LARGE","MEAN_MOTION_DOT":"0.00001399","REV_AT_EPOCH":"7075","INCLINATION":"53.0555","RA_OF_ASC_NODE":"268.9817","NORAD_CAT_ID":"47894","EPHEMERIS_TYPE":"0","ARG_OF_PERICENTER":"63.5609","MEAN_ANOMALY":"296.5547","MEAN_ELEMENT_THEORY":"SGP4","GP_ID":"206288182","OBJECT_ID":"2021-021AL","PERIAPSIS":"546.064","OBJECT_TYPE":"PAYLOAD","REF_FRAME":"TEME","MEAN_MOTION_DDOT":"0.0000000000000","ECCENTRICITY":"0.00016240","TLE_LINE2":"2 47894  53.0555 268.9817 0001624  63.5609 296.5547 15.06408237 70753","MEAN_MOTION":"15.06408237","PERIOD":"95.592","EPOCH":"2022-06-15T23:59:43.870848","BSTAR":"0.00011278000000","FILE":"3497002","APOAPSIS":"548.313","COUNTRY_CODE":"US"},{"MEAN_MOTION_DDOT":"0.0000000000000","ECCENTRICITY":"0.00012370","TLE_LINE2":"2 47895  53.0540 268.9327 0001237  76.9626 283.1501 15.06406515 70783","NORAD_CAT_ID":"47895","EPHEMERIS_TYPE":"0","MEAN_ANOMALY":"283.1501","ARG_OF_PERICENTER":"76.9626","MEAN_ELEMENT_THEORY":"SGP4","GP_ID":"206288930","OBJECT_ID":"2021-021AM","PERIAPSIS":"546.337","OBJECT_TYPE":"PAYLOAD","REF_FRAME":"TEME","PERIOD":"95.592","EPOCH":"2022-06-16T00:15:39.902400","BSTAR":"-0.00011720000000","FILE":"3497002","APOAPSIS":"548.050","COUNTRY_CODE":"US","MEAN_MOTION":"15.06406515","TIME_SYSTEM":"UTC","LAUNCH_DATE":"2021-03-14","TLE_LINE1":"1 47895U 21021AM  22167.01087850 -.00002027  00000-0 -11720-3 0  9993","ELEMENT_SET_NO":"999","DECAY_DATE":null,"SEMIMAJOR_AXIS":"6925.329","CENTER_NAME":"EARTH","OBJECT_NAME":"STARLINK-2355","CLASSIFICATION_TYPE":"U","REV_AT_EPOCH":"7078","MEAN_MOTION_DOT":"-0.00002027","INCLINATION":"53.0540","RA_OF_ASC_NODE":"268.9327","SITE":"AFETR","RCS_SIZE":"LARGE"},{"REF_FRAME":"TEME","OBJECT_TYPE":"PAYLOAD","PERIAPSIS":"546.205","OBJECT_ID":"2021-021AN","GP_ID":"206208233","MEAN_ANOMALY":"294.1810","ARG_OF_PERICENTER":"65.9333","MEAN_ELEMENT_THEORY":"SGP4","EPHEMERIS_TYPE":"0","NORAD_CAT_ID":"47896","TLE_LINE2":"2 47896  53.0540 285.7521 0001477  65.9333 294.1810 15.06395171 70483","ECCENTRICITY":"0.00014770","MEAN_MOTION_DDOT":"0.0000000000000","MEAN_MOTION":"15.06395171","COUNTRY_CODE":"US","FILE":"3496794","APOAPSIS":"548.251","BSTAR":"0.00002956100000","EPOCH":"2022-06-15T14:32:29.083488","PERIOD":"95.592","CLASSIFICATION_TYPE":"U","OBJECT_NAME":"STARLINK-2356","CENTER_NAME":"EARTH","SEMIMAJOR_AXIS":"6925.363","DECAY_DATE":null,"ELEMENT_SET_NO":"999","TLE_LINE1":"1 47896U 21021AN  22166.60589217  .00000159  00000-0  29561-4 0  9997","LAUNCH_DATE":"2021-03-14","TIME_SYSTEM":"UTC","RCS_SIZE":"LARGE","SITE":"AFETR","RA_OF_ASC_NODE":"285.7521","INCLINATION":"53.0540","MEAN_MOTION_DOT":"0.00000159","REV_AT_EPOCH":"7048"},{"ELEMENT_SET_NO":"999","DECAY_DATE":null,"TLE_LINE1":"1 47897U 21021AP  22167.00994414  .00006672  00000-0  46645-3 0  9999","TIME_SYSTEM":"UTC","LAUNCH_DATE":"2021-03-14","CLASSIFICATION_TYPE":"U","OBJECT_NAME":"STARLINK-2357","CENTER_NAME":"EARTH","SEMIMAJOR_AXIS":"6925.357","RA_OF_ASC_NODE":"268.9124","INCLINATION":"53.0532","MEAN_MOTION_DOT":"0.00006672","REV_AT_EPOCH":"7081","RCS_SIZE":"LARGE","SITE":"AFETR","TLE_LINE2":"2 47897  53.0532 268.9124 0001498  70.1658 289.9492 15.06397212 70811","ECCENTRICITY":"0.00014980","MEAN_MOTION_DDOT":"0.0000000000000","OBJECT_TYPE":"PAYLOAD","REF_FRAME":"TEME","GP_ID":"206287435","PERIAPSIS":"546.185","OBJECT_ID":"2021-021AP","MEAN_ELEMENT_THEORY":"SGP4","MEAN_ANOMALY":"289.9492","ARG_OF_PERICENTER":"70.1658","NORAD_CAT_ID":"47897","EPHEMERIS_TYPE":"0","FILE":"3497002","APOAPSIS":"548.260","COUNTRY_CODE":"US","BSTAR":"0.00046645000000","PERIOD":"95.592","EPOCH":"2022-06-16T00:14:19.173696","MEAN_MOTION":"15.06397212"},{"SEMIMAJOR_AXIS":"6925.364","CENTER_NAME":"EARTH","OBJECT_NAME":"STARLINK-2358","CLASSIFICATION_TYPE":"U","TIME_SYSTEM":"UTC","LAUNCH_DATE":"2021-03-14","TLE_LINE1":"1 47898U 21021AQ  22167.00351263  .00001190  00000-0  98758-4 0  9992","DECAY_DATE":null,"ELEMENT_SET_NO":"999","SITE":"AFETR","RCS_SIZE":"LARGE","REV_AT_EPOCH":"7075","MEAN_MOTION_DOT":"0.00001190","INCLINATION":"53.0538","RA_OF_ASC_NODE":"268.9683","EPHEMERIS_TYPE":"0","NORAD_CAT_ID":"47898","MEAN_ANOMALY":"283.5517","ARG_OF_PERICENTER":"76.5628","MEAN_ELEMENT_THEORY":"SGP4","OBJECT_ID":"2021-021AQ","PERIAPSIS":"546.261","GP_ID":"206288683","REF_FRAME":"TEME","OBJECT_TYPE":"PAYLOAD","MEAN_MOTION_DDOT":"0.0000000000000","ECCENTRICITY":"0.00013980","TLE_LINE2":"2 47898  53.0538 268.9683 0001398  76.5628 283.5517 15.06395009 70757","MEAN_MOTION":"15.06395009","EPOCH":"2022-06-16T00:05:03.491232","PERIOD":"95.592","BSTAR":"0.00009875800000","COUNTRY_CODE":"US","FILE":"3497002","APOAPSIS":"548.197"},{"SEMIMAJOR_AXIS":"6925.385","CENTER_NAME":"EARTH","OBJECT_NAME":"STARLINK-2359","CLASSIFICATION_TYPE":"U","TIME_SYSTEM":"UTC","LAUNCH_DATE":"2021-03-14","TLE_LINE1":"1 47899U 21021AR  22166.53537736 -.00001866  00000-0 -10644-3 0  9990","DECAY_DATE":null,"ELEMENT_SET_NO":"999","SITE":"AFETR","RCS_SIZE":"LARGE","MEAN_MOTION_DOT":"-0.00001866","REV_AT_EPOCH":"7088","INCLINATION":"53.0547","RA_OF_ASC_NODE":"261.0468","EPHEMERIS_TYPE":"0","NORAD_CAT_ID":"47899","MEAN_ANOMALY":"283.6560","ARG_OF_PERICENTER":"76.4578","MEAN_ELEMENT_THEORY":"SGP4","OBJECT_ID":"2021-021AR","PERIAPSIS":"546.318","GP_ID":"206207986","REF_FRAME":"TEME","OBJECT_TYPE":"PAYLOAD","MEAN_MOTION_DDOT":"0.0000000000000","ECCENTRICITY":"0.00013460","TLE_LINE2":"2 47899  53.0547 261.0468 0001346  76.4578 283.6560 15.06388213 70881","MEAN_MOTION":"15.06388213","EPOCH":"2022-06-15T12:50:56.603904","PERIOD":"95.593","BSTAR":"-0.00010644000000","COUNTRY_CODE":"US","APOAPSIS":"548.182","FILE":"3496794"},{"CLASSIFICATION_TYPE":"U","OBJECT_NAME":"STARLINK-2360","CENTER_NAME":"EARTH","SEMIMAJOR_AXIS":"6925.365","ELEMENT_SET_NO":"999","DECAY_DATE":null,"TLE_LINE1":"1 47900U 21021AS  22166.75929594 -.00000617  00000-0 -22522-4 0  9996","TIME_SYSTEM":"UTC","LAUNCH_DATE":"2021-03-14","RCS_SIZE":"LARGE","SITE":"AFETR","RA_OF_ASC_NODE":"270.0604","INCLINATION":"53.0539","MEAN_MOTION_DOT":"-0.00000617","REV_AT_EPOCH":"7028","OBJECT_TYPE":"PAYLOAD","REF_FRAME":"TEME","GP_ID":"206214394","OBJECT_ID":"2021-021AS","PERIAPSIS":"546.039","MEAN_ANOMALY":"291.4349","ARG_OF_PERICENTER":"68.6824","MEAN_ELEMENT_THEORY":"SGP4","NORAD_CAT_ID":"47900","EPHEMERIS_TYPE":"0","TLE_LINE2":"2 47900  53.0539 270.0604 0001720  68.6824 291.4349 15.06394635 70281","ECCENTRICITY":"0.00017200","MEAN_MOTION_DDOT":"0.0000000000000","MEAN_MOTION":"15.06394635","FILE":"3496943","APOAPSIS":"548.421","COUNTRY_CODE":"US","BSTAR":"-0.00002252200000","PERIOD":"95.592","EPOCH":"2022-06-15T18:13:23.169216"}];
